DMSP 5D-3 F16 (USA 172) 
1 28054U 03048A   26162.58625247 -.00000008  00000+0  19582-4 0  9997
2 28054  98.9892 186.3774 0007472 154.6961 316.4821 14.14482630168692
METEOSAT-9 (MSG-2)      
1 28912U 05049B   26161.84794816  .00000136  00000+0  00000+0 0  9991
2 28912   9.3464  54.2281 0001608 348.0762 207.8226  1.00269523  6930
DMSP 5D-3 F17 (USA 191) 
1 29522U 06050A   26162.58350146  .00000019  00000+0  32340-4 0  9995
2 29522  98.7378 169.2682 0011294  73.6994 286.5421 14.14992251 11630
FENGYUN 3A              
1 32958U 08026A   26162.54960828  .00000046  00000+0  42176-4 0  9995
2 32958  98.6883 103.4883 0009357 138.5545 221.6343 14.19570033934609
GOES 14                 
1 35491U 09033A   26162.58059852 -.00000253  00000+0  00000+0 0  9995
2 35491   1.6747  83.1097 0001801   7.9404 162.9425  1.00112739  6538
DMSP 5D-3 F18 (USA 210) 
1 35951U 09057A   26162.62522313  .00000234  00000+0  14451-3 0  9991
2 35951  98.9035 143.4064 0009843 267.2388  92.7659 14.14893709858804
EWS-G2 (GOES 15)        
1 36411U 10008A   26162.56446610  .00000034  00000+0  00000+0 0  9998
2 36411   1.2616  82.9449 0005413  40.6741  43.1421  1.00275507 59583
COMS 1                  
1 36744U 10032A   26154.99142485 -.00000334  00000+0  00000+0 0  9999
2 36744   4.7750  75.5286 0001016   4.5847 297.3769  1.00270643 50953
FENGYUN 3B              
1 37214U 10059A   26162.65668752  .00000041  00000+0  44459-4 0  9998
2 37214  98.9625 208.6479 0021587 199.8889 274.1964 14.14839658806645
SUOMI NPP               
1 37849U 11061A   26162.63117012  .00000047  00000+0  43106-4 0  9996
2 37849  98.7954 103.5452 0001840  19.3329 340.7917 14.19516245757654
METEOSAT-10 (MSG-3)     
1 38552U 12035B   26162.33808206  .00000010  00000+0  00000+0 0  9990
2 38552   4.6571  61.0428 0001464 331.4803 349.1317  1.00275943 50796
METOP-B                 
1 38771U 12049A   26162.55831652  .00000089  00000+0  60382-4 0  9993
2 38771  98.6506 214.1696 0002573  33.1763 326.9575 14.21431212712469
INSAT-3D                
1 39216U 13038B   26162.57749742 -.00000323  00000+0  00000+0 0  9995
2 39216   1.9108  82.6096 0000647 312.4653 202.2697  1.00271990 47024
FENGYUN 3C              
1 39260U 13052A   26162.60195346  .00000081  00000+0  62069-4 0  9997
2 39260  98.4976 136.7333 0015521  42.9600 317.2784 14.15753838657775
METEOR-M 2              
1 40069U 14037A   26162.65517866 -.00000273  00000+0 -10555-3 0  9997
2 40069  98.5108 138.5893 0006949  57.8923 302.2928 14.21458626618539
HIMAWARI-8              
1 40267U 14060A   26162.57973185 -.00000259  00000+0  00000+0 0  9997
2 40267   0.0135 324.3419 0000735 146.3196 138.6238  1.00269650 42704
FENGYUN 2G              
1 40367U 14090A   26162.64289288 -.00000289  00000+0  00000+0 0  9996
2 40367   5.6236  72.8841 0003726 152.8670   5.3248  1.00275075 41948
METEOSAT-11 (MSG-4)     
1 40732U 15034A   26162.26860381  .00000080  00000+0  00000+0 0  9996
2 40732   3.1872  71.1443 0001733   7.6237 287.0442  1.00278494  7153
ELEKTRO-L 2             
1 41105U 15074A   26161.97872950 -.00000103  00000+0  00000+0 0  9994
2 41105   6.6771  70.6006 0000813 270.8986 255.6834  1.00271247 38447
SENTINEL-3A             
1 41335U 16011A   26162.60617332  .00000082  00000+0  51910-4 0  9999
2 41335  98.6249 230.0697 0001376 103.4974 256.6360 14.26738425537261
INSAT-3DR               
1 41752U 16054A   26162.49519205 -.00000060  00000+0  00000+0 0  9992
2 41752   0.0908  87.1653 0010566 186.8122 238.1118  1.00270275 35763
HIMAWARI-9              
1 41836U 16064A   26162.57973185 -.00000258  00000+0  00000+0 0  9995
2 41836   0.0494 143.3345 0000807 349.2512 116.8210  1.00271138 35151
GOES 16                 
1 41866U 16071A   26162.53111728 -.00000074  00000+0  00000+0 0  9995
2 41866   0.3256  85.5640 0000280 303.7600 317.0743  1.00270233 35045
FENGYUN 4A              
1 41882U 16077A   26162.64765957 -.00000341  00000+0  00000+0 0  9997
2 41882   2.3073  80.3541 0008516 151.7691  24.8103  1.00271870 34877
CYGFM05                 
1 41884U 16078A   26162.47138820  .00020275  00000+0  27746-3 0  9991
2 41884  34.9572 298.4320 0006776  92.2280 267.9220 15.56417707527863
CYGFM04                 
1 41885U 16078B   26162.52360393  .00030030  00000+0  34199-3 0  9990
2 41885  34.9326 266.0600 0006084 140.2618 219.8554 15.61202378528111
CYGFM02                 
1 41886U 16078C   26162.53505136  .00033609  00000+0  34079-3 0  9990
2 41886  34.9406 260.6830 0007069 141.7664 218.3565 15.64140533528288
CYGFM01                 
1 41887U 16078D   26162.65492199  .00023530  00000+0  31369-3 0  9999
2 41887  34.9403 298.3195 0006567  86.8683 273.2793 15.57096635527849
CYGFM08                 
1 41888U 16078E   26162.62383804  .00027747  00000+0  33436-3 0  9990
2 41888  34.9433 278.2499 0007813 121.6627 238.4861 15.59731170528109
CYGFM07                 
1 41890U 16078G   26162.51932837  .00025052  00000+0  30112-3 0  9992
2 41890  34.9452 267.2924 0006375 139.1708 220.9495 15.59825422528114
CYGFM03                 
1 41891U 16078H   26162.49030442  .00027148  00000+0  32628-3 0  9993
2 41891  34.9400 269.4243 0005938 125.5783 234.5496 15.59818699528088
